NORAD_CAT_ID,OBJECT_NAME,OBJECT_TYPE,EPOCH,MEAN_MOTION,ECCENTRICITY,INCLINATION,RA_OF_ASC_NODE,ARG_OF_PERICENTER,MEAN_ANOMALY,BSTAR,MEAN_MOTION_DOT,MEAN_MOTION_DDOT,TLE_LINE0,TLE_LINE1,TLE_LINE2,SEMIMAJOR_AXIS,PERIOD,APOGEE,PERIGEE,DECAYED
56463.0,STARLINK-6051,PAYLOAD,2023-05-16 16:00:00,15.90546172,0.0025364,70.0004,229.0595,159.4801,310.4643,-0.0029604,-0.0093927,0.00026526,0 STARLINK-6051,1 56463U 23064R   23136.66667824 -.00939270  26526-3 -29604-2 0  9998,2 56463  70.0004 229.0595 0025364 159.4801 310.4643 15.90546172  1302,6678.89,90.535,317.696,283.815,0.0
56463.0,STARLINK-6051,PAYLOAD,2023-05-16 22:00:00,15.90072509,0.0023142,70.0001,228.3352,159.8019,300.9905,-0.0031943,-0.00984021,0.00028778,0 STARLINK-6051,1 56463U 23064R   23136.91667824 -.00984021  28778-3 -31943-2 0  9990,2 56463  70.0001 228.3352 0023142 159.8019 300.9905 15.90072509  1335,6680.217,90.562,317.541,286.622,0.0
56463.0,STARLINK-6051,PAYLOAD,2023-05-17 22:00:00,15.88123155,0.0013979,69.9998,225.4429,163.7357,256.0594,-0.0036319,-0.00999088,0.00029044,0 STARLINK-6051,1 56463U 23064R   23137.91667824 -.00999088  29044-3 -36319-2 0  9999,2 56463  69.9998 225.4429 0013979 163.7357 256.0594 15.88123155  1499,6685.682,90.673,316.893,298.201,0.0
56463.0,STARLINK-6051,PAYLOAD,2023-05-18 14:00:01,15.86809136,0.0008114,69.9999,223.5194,172.2707,96.2855,-0.0037802,-0.00882978,0.0,0 STARLINK-6051,1 56463U 23064R   23138.58334491 -.00882978  00000-0 -37802-2 0  9999,2 56463  69.9999 223.5194 0008114 172.2707  96.2855 15.86809136  1602,6689.372,90.748,316.665,305.81,0.0
56463.0,STARLINK-6051,PAYLOAD,2023-05-18 22:00:00,15.86173074,0.0005549,69.9997,222.5589,184.9851,186.773,-0.0040818,-0.00918244,0.0,0 STARLINK-6051,1 56463U 23064R   23138.91667824 -.00918244  00000-0 -40818-2 0  9992,2 56463  69.9997 222.5589 0005549 184.9851 186.7730 15.86173074  1305,6691.161,90.785,316.739,309.313,0.0
56463.0,STARLINK-6051,PAYLOAD,2023-05-19 06:00:00,15.85536995,0.0003864,69.9999,221.5999,206.4305,267.7431,-0.0042462,-0.00924236,0.0,0 STARLINK-6051,1 56463U 23064R   23139.25001157 -.00924236  00000-0 -42462-2 0  9996,2 56463  69.9999 221.5999 0003864 206.4305 267.7431 15.85536995  1710,6692.95,90.821,317.401,312.229,0.0
56463.0,STARLINK-6051,PAYLOAD,2023-05-19 22:00:01,15.84220288,0.0003354,69.9997,219.6843,260.9143,55.8357,-0.0044797,-0.00915633,0.0,0 STARLINK-6051,1 56463U 23064R   23139.91668981 -.00915633  00000-0 -44797-2 0  9997,2 56463  69.9997 219.6843 0003354 260.9143  55.8357 15.84220288  1305,6696.658,90.896,320.769,316.277,0.0
56463.0,STARLINK-6051,PAYLOAD,2023-05-20 06:00:00,15.83527192,0.0003567,70.0,218.7281,270.0471,146.7227,-0.0041412,-0.0082736,0.0,0 STARLINK-6051,1 56463U 23064R   23140.25001157 -.00827360  00000-0 -41412-2 0  9992,2 56463  70.0000 218.7281 0003567 270.0471 146.7227 15.83527192  1861,6698.612,90.936,322.866,318.088,0.0
56463.0,STARLINK-6051,PAYLOAD,2023-05-20 14:00:01,15.82771879,0.0003601,69.9996,217.773,278.5635,237.5058,0.0017602,0.00388905,0.0,0 STARLINK-6051,1 56463U 23064R   23140.58334491  .00388905  00000-0  17602-2 0  9997,2 56463  69.9996 217.7730 0003601 278.5635 237.5058 15.82771879  1924,6700.743,90.98,325.021,320.195,0.0
56463.0,STARLINK-6051,PAYLOAD,2023-05-21 06:00:00,15.81643587,0.0003911,69.9993,215.8625,267.3329,84.949,-0.0053385,-0.00961181,0.0,0 STARLINK-6051,1 56463U 23064R   23141.25001157 -.00961181  00000-0 -53385-2 0  9995,2 56463  69.9993 215.8625 0003911 267.3329  84.9490 15.81643587  2022,6703.929,91.045,328.416,323.172,0.0
56463.0,STARLINK-6051,PAYLOAD,2023-05-21 14:00:01,15.80932099,0.0003664,69.9991,214.9089,275.7567,173.4917,-0.0049107,-0.00864934,0.0,0 STARLINK-6051,1 56463U 23064R   23141.58334491 -.00864934  00000-0 -49107-2 0  9996,2 56463  69.9991 214.9089 0003664 275.7567 173.4917 15.80932099  1302,6705.941,91.086,330.263,325.348,0.0
56463.0,STARLINK-6051,PAYLOAD,2023-05-21 22:00:00,15.80287872,0.0003468,69.9989,213.9565,270.6441,274.77,-0.0052344,-0.00892003,0.0,0 STARLINK-6051,1 56463U 23064R   23141.91667824 -.00892003  00000-0 -52344-2 0  9997,2 56463  69.9989 213.9565 0003468 270.6441 274.7700 15.80287872  2133,6707.763,91.123,331.954,327.302,0.0
56463.0,STARLINK-6051,PAYLOAD,2023-05-22 14:00:01,15.78982328,0.0003468,69.9991,212.0549,273.8951,101.4997,-0.0054456,-0.00875873,0.0,0 STARLINK-6051,1 56463U 23064R   23142.58334491 -.00875873  00000-0 -54456-2 0  9994,2 56463  69.9991 212.0549 0003468 273.8951 101.4997 15.78982328  2239,6711.46,91.198,335.652,330.997,0.0
56463.0,STARLINK-6051,PAYLOAD,2023-05-22 22:00:00,15.78317401,0.0003359,69.9988,211.1056,270.8446,198.3772,-0.005552,-0.00867321,0.0,0 STARLINK-6051,1 56463U 23064R   23142.91667824 -.00867321  00000-0 -55520-2 0  9992,2 56463  69.9988 211.1056 0003359 270.8446 198.3772 15.78317401  1300,6713.345,91.236,337.465,332.955,0.0
56463.0,STARLINK-6051,PAYLOAD,2023-05-23 06:00:00,15.77726005,0.0003329,69.999,210.1575,267.6374,294.5991,-0.0063485,-0.00955585,0.0,0 STARLINK-6051,1 56463U 23064R   23143.25001157 -.00955585  00000-0 -63485-2 0  9990,2 56463  69.9990 210.1575 0003329 267.6374 294.5991 15.77726005  2349,6715.022,91.271,339.123,334.652,0.0
56463.0,STARLINK-6051,PAYLOAD,2023-05-23 22:00:00,15.76358076,0.0003519,69.9982,208.263,271.2793,114.7046,-0.0060128,-0.00861229,0.0,0 STARLINK-6051,1 56463U 23064R   23143.91667824 -.00861229  00000-0 -60128-2 0  9994,2 56463  69.9982 208.2630 0003519 271.2793 114.7046 15.76358076  2440,6718.906,91.35,343.136,338.407,0.0
56463.0,STARLINK-6051,PAYLOAD,2023-05-24 14:00:01,15.75065275,0.0003409,69.9983,206.3722,274.9823,291.6581,-0.0064379,-0.00870134,0.0,0 STARLINK-6051,1 56463U 23064R   23144.58335648 -.00870134  00000-0 -64379-2 0  9991,2 56463  69.9983 206.3722 0003409 274.9823 291.6581 15.75065275  2550,6722.582,91.425,346.739,342.156,0.0
56463.0,STARLINK-6051,PAYLOAD,2023-05-24 22:00:00,15.7439632,0.0003551,69.9983,205.4283,268.7447,26.9625,-0.0064896,-0.00853647,0.0,0 STARLINK-6051,1 56463U 23064R   23144.91667824 -.00853647  00000-0 -64896-2 0  9996,2 56463  69.9983 205.4283 0003551 268.7447  26.9625 15.74396320  1300,6724.487,91.464,348.739,343.964,0.0
56463.0,STARLINK-6051,PAYLOAD,2023-05-25 04:00:01,15.73970314,0.0003667,69.9987,204.7212,265.9539,6.1219,-0.0073224,-0.00936241,0.0,0 STARLINK-6051,1 56463U 23064R   23145.16668981 -.00936241  00000-0 -73224-2 0  9996,2 56463  69.9987 204.7212 0003667 265.9539   6.1219 15.73970314  2644,6725.7,91.488,350.031,345.099,0.0
56463.0,STARLINK-6051,PAYLOAD,2023-05-25 14:00:01,15.7310008,0.0003605,69.9986,203.5434,275.7485,195.8568,-0.0069046,-0.00858306,0.0,0 STARLINK-6051,1 56463U 23064R   23145.58334491 -.00858306  00000-0 -69046-2 0  9990,2 56463  69.9986 203.5434 0003605 275.7485 195.8568 15.73100080  1307,6728.18,91.539,352.471,347.62,0.0
56463.0,STARLINK-6051,PAYLOAD,2023-05-25 22:00:00,15.72445751,0.0003551,69.9984,202.602,268.6007,289.7841,-0.0071435,-0.00862955,0.0,0 STARLINK-6051,1 56463U 23064R   23145.91667824 -.00862955  00000-0 -71435-2 0  9996,2 56463  69.9984 202.6020 0003551 268.6007 289.7841 15.72445751  1300,6730.046,91.577,354.301,349.522,0.0
56463.0,STARLINK-6051,PAYLOAD,2023-05-26 06:00:00,15.7184932,0.0003709,69.9985,201.6618,265.7489,18.6147,-0.0081596,-0.00965927,0.0,0 STARLINK-6051,1 56463U 23064R   23146.25001157 -.00965927  00000-0 -81596-2 0  9997,2 56463  69.9985 201.6618 0003709 265.7489  18.6147 15.71849320  2814,6731.749,91.612,356.111,351.117,0.0
56463.0,STARLINK-6051,PAYLOAD,2023-05-26 14:00:01,15.71155768,0.0003707,69.9982,200.7224,273.8543,95.7295,-0.0076275,-0.00871488,0.0,0 STARLINK-6051,1 56463U 23064R   23146.58334491 -.00871488  00000-0 -76275-2 0  9999,2 56463  69.9982 200.7224 0003707 273.8543  95.7295 15.71155768  1302,6733.73,91.652,358.091,353.098,0.0
56463.0,STARLINK-6051,PAYLOAD,2023-05-26 22:00:01,15.70370248,0.0003574,69.9985,199.7837,269.3281,184.7863,-0.0049209,-0.00564271,0.0,0 STARLINK-6051,1 56463U 23064R   23146.91668981 -.00564271  00000-0 -49209-2 0  9996,2 56463  69.9985 199.7837 0003574 269.3281 184.7863 15.70370248  2923,6735.975,91.698,360.247,355.433,0.0
56463.0,STARLINK-6051,PAYLOAD,2023-05-27 06:00:02,15.6995203,0.000342,69.999,198.8464,269.1388,268.5956,-0.00053497,-0.00064125,0.0,0 STARLINK-6051,1 56463U 23064R   23147.25002315 -.00064125  00000-0 -53497-3 0  9995,2 56463  69.9990 198.8464 0003420 269.1388 268.5956 15.69952030  2973,6737.171,91.723,361.34,356.732,0.0
56463.0,STARLINK-6051,PAYLOAD,2023-05-27 22:00:00,15.69880997,0.0003361,69.9988,196.9719,269.0233,75.333,0.00055175,0.0006654,0.0,0 STARLINK-6051,1 56463U 23064R   23147.91667824  .00066540  00000-0  55175-3 0  9996,2 56463  69.9988 196.9719 0003361 269.0233  75.3330 15.69880997  3078,6737.374,91.727,361.504,356.975,0.0
56463.0,STARLINK-6051,PAYLOAD,2023-05-28 06:00:00,15.69975062,0.0003467,69.9988,196.0349,270.623,157.0355,-0.00085108,-0.00101538,0.0,0 STARLINK-6051,1 56463U 23064R   23148.25001157 -.00101538  00000-0 -85108-3 0  9993,2 56463  69.9988 196.0349 0003467 270.6230 157.0355 15.69975062  1307,6737.105,91.721,361.306,356.635,0.0
56463.0,STARLINK-6051,PAYLOAD,2023-05-28 14:00:01,15.6990377,0.000344,69.9986,195.0976,276.5123,234.5094,0.00032635,0.00039179,0.0,0 STARLINK-6051,1 56463U 23064R   23148.58334491  .00039179  00000-0  32635-3 0  9995,2 56463  69.9986 195.0976 0003440 276.5123 234.5094 15.69903770  3183,6737.309,91.725,361.492,356.857,0.0
56463.0,STARLINK-6051,PAYLOAD,2023-05-28 22:00:00,15.69891674,0.0003429,69.9989,194.1602,270.4907,323.8896,0.0002224,0.00026578,0.0,0 STARLINK-6051,1 56463U 23064R   23148.91667824  .00026578  00000-0  22240-3 0  9991,2 56463  69.9989 194.1602 0003429 270.4907 323.8896 15.69891674  1305,6737.344,91.726,361.519,356.899,0.0
56463.0,STARLINK-6051,PAYLOAD,2023-05-29 04:39:04,15.6992755,0.0003461,69.9988,193.3814,271.1092,88.9708,6.2377e-05,7.295e-05,0.0,0 STARLINK-6051,1 56463U 23064R   23149.19379754  .00007295  00000-0  62377-4 0  9995,2 56463  69.9988 193.3814 0003461 271.1092  88.9708 15.69927550  3271,6737.241,91.724,361.438,356.775,0.0
